         0.0000000       15.4906022     6797.6130233        0.0001209       51.6462000      305.2235000      102.7261000       51.6462000
      1440.0000000       15.4906205     6797.6076743        0.0001209       51.6462000      122.4552613       97.7762040       51.6462000
      2880.0000000       15.4906388     6797.6023249        0.0001209       51.6462000      299.6859597       92.8262943       51.6462000
      4320.0000000       15.4906570     6797.5969753        0.0001209       51.6462000      116.9302979       87.8763710       51.6462000
      5760.0000000       15.4906753     6797.5916253        0.0001209       51.6462000      294.1747675       82.9264341       51.6462000
      7200.0000000       15.4906936     6797.5862749        0.0001208       51.6462000      111.4316529       77.9764836       51.6462000
      8640.0000000       15.4907119     6797.5809243        0.0001208       51.6462000      288.6899240       73.0265195       51.6462000
     10080.0000000       15.4907302     6797.5755733        0.0001208       51.6462000      105.9593325       68.0765417       51.6462000
     11520.0000000       15.4907485     6797.5702220        0.0001208       51.6462000      283.2314295       63.1265503       51.6462000
     12960.0000000       15.4907668     6797.5648703        0.0001208       51.6462000      100.5133432       58.1765453       51.6462000
     14400.0000000       15.4907851     6797.5595183        0.0001208       51.6462000      277.7992843       53.2265266       51.6462000
     15840.0000000       15.4908034     6797.5541660        0.0001208       51.6462000       95.0936914       48.2764943       51.6462000
     17280.0000000       15.4908217     6797.5488133        0.0001208       51.6462000      272.3934886       43.3264484       51.6462000
     18720.0000000       15.4908400     6797.5434603        0.0001207       51.6462000       89.7003837       38.3763889       51.6462000
     20160.0000000       15.4908583     6797.5381070        0.0001208       51.6462000      267.0140427       33.4263158       51.6462000
     21600.0000000       15.4908766     6797.5327533        0.0001207       51.6462000       84.3334267       28.4762290       51.6462000
     23040.0000000       15.4908949     6797.5273993        0.0001207       51.6462000      261.6609468       23.5261286       51.6462000
     24480.0000000       15.4909132     6797.5220450        0.0001207       51.6462000       78.9928269       18.5760146       51.6462000
     25920.0000000       15.4909315     6797.5166903        0.0001207       51.6462000      256.3342010       13.6258869       51.6462000
     27360.0000000       15.4909498     6797.5113353        0.0001207       51.6462000       73.6785909        8.6757456       51.6462000
     28800.0000000       15.4909681     6797.5059800        0.0001207       51.6462000      251.0338056        3.7255907       51.6462000
     30094.6099824       15.4909846     6797.5011650        0.0001207       51.6462000      225.2746435      359.2752180       51.6462000


 1 25544U 98067A   20364.69439405 +.00000748  00000 0  21559-4 0 0999                                                                                                                                                                                                                                                                                                                                                                                                                                                            
 2 25544  51.6460 101.0967 0001179 165.2966 341.7300 15.4923410826232                                                                                                                                                                                                                                                                                                                                                                                                                                                            

         0.0000000       15.4906229     6797.6069670        0.0001179       51.6460000      341.7300000      101.0967000       51.6460000
      1440.0000000       15.4906469     6797.5999468        0.0001179       51.6460000      158.9712721       96.1467644       51.6460000
      2880.0000000       15.4906709     6797.5929260        0.0001179       51.6460000      336.2032887       91.1968109       51.6460000
      4320.0000000       15.4906949     6797.5859046        0.0001179       51.6460000      153.4614887       86.2468396       51.6460000
      5760.0000000       15.4907189     6797.5788827        0.0001178       51.6460000      330.7111782       81.2968503       51.6460000
      7200.0000000       15.4907429     6797.5718602        0.0001178       51.6460000      147.9862285       76.3468432       51.6460000
      8640.0000000       15.4907669     6797.5648371        0.0001178       51.6460000      325.2536722       71.3968182       51.6460000
     10080.0000000       15.4907909     6797.5578134        0.0001178       51.6460000      142.5454995       66.4467753       51.6460000
     11520.0000000       15.4908149     6797.5507892        0.0001178       51.6460000      319.8307743       61.4967145       51.6460000
     12960.0000000       15.4908389     6797.5437644        0.0001178       51.6460000      137.1393099       56.5466359       51.6460000
     14400.0000000       15.4908630     6797.5367390        0.0001178       51.6460000      314.4424876       51.5965393       51.6460000
     15840.0000000       15.4908870     6797.5297130        0.0001177       51.6460000      131.7676683       46.6464249       51.6460000
     17280.0000000       15.4909110     6797.5226865        0.0001177       51.6460000      309.0888152       41.6962926       51.6460000
     18720.0000000       15.4909350     6797.5156593        0.0001177       51.6460000      126.4305834       36.7461424       51.6460000
     20160.0000000       15.4909590     6797.5086317        0.0001177       51.6460000      303.7697596       31.7959744       51.6460000
     21600.0000000       15.4909831     6797.5016034        0.0001177       51.6460000      121.1280646       26.8457884       51.6460000
     23040.0000000       15.4910071     6797.4945745        0.0001177       51.6460000      298.4853230       21.8955846       51.6460000
     24480.0000000       15.4910311     6797.4875451        0.0001177       51.6460000      115.8601210       16.9453629       51.6460000
     25920.0000000       15.4910551     6797.4805151        0.0001177       51.6460000      293.2355077       11.9951233       51.6460000
     27360.0000000       15.4910792     6797.4734846        0.0001176       51.6460000      110.6267624        7.0448658       51.6460000
     28800.0000000       15.4911032     6797.4664534        0.0001176       51.6460000      288.0203156        2.0945905       51.6460000
     29620.3345200       15.4911169     6797.4624477        0.0001176       51.6460000      225.3421278      359.2745257       51.6460000


 1 25544U 98067A   20364.75030688 +.00000754  00000 0  21661-4 0 0999                                                                                                                                                                                                                                                                                                                                                                                                                                                            
 2 25544  51.6460 100.8199 0001181 165.5525 293.5195 15.4923426526233                                                                                                                                                                                                                                                                                                                                                                                                                                                            

